#cP2023  8 25  0  0  0.00000000      96 ORBIT IGS20 HLM  IGS
## 2276 432000.00000000   900.00000000 60181 0.0000000000000
+   32   G01G02G03G04G05G06G07G08G09G10G11G12G13G14G15G16G17
+        G18G19G20G21G22G23G24G25G26G27G28G29G30G31G32  0  0
+          0  0  0  0  0  0  0  0  0  0  0  0  0  0  0  0  0
+          0  0  0  0  0  0  0  0  0  0  0  0  0  0  0  0  0
+          0  0  0  0  0  0  0  0  0  0  0  0  0  0  0  0  0
++         2  2  2  3  2  2  2  2  2  2  2  2  2  2  2  2  2
++         2  2  2  2  2  2  2  2  2  2  2  2  2  2  0  0  0
++         0  0  0  0  0  0  0  0  0  0  0  0  0  0  0  0  0
++         0  0  0  0  0  0  0  0  0  0  0  0  0  0  0  0  0
++         0  0  0  0  0  0  0  0  0  0  0  0  0  0  0  0  0
%c G  cc GPS ccc cccc cccc cccc cccc ccccc ccccc ccccc ccccc
%c cc cc ccc ccc cccc cccc cccc cccc ccccc ccccc ccccc ccccc
%f  1.2500000  1.025000000  0.00000000000  0.000000000000000
%f  0.0000000  0.000000000  0.00000000000  0.000000000000000
%i    0    0    0    0      0      0      0      0         0
%i    0    0    0    0      0      0      0      0         0
/* RAPID ORBIT COMBINATION FROM WEIGHTED AVERAGE OF:        
/* cod emr esa gfz jgx jpl ngs sio usn whu                  
/* REFERENCED TO IGS TIME (IGST) AND TO WEIGHTED MEAN POLE: 
/* PCV:IGS20      OL/AL:FES2014b NONE     Y  ORB:CMB CLK:CMB
*  2023  8 25  4 30  0.00000000
PG01   7081.629780 -17796.726708 -18589.674035    167.415732  4  8  5  97       
PG02  13218.064159 -19192.237896 -12079.161394   -561.700182  7  7  6  78       
PG03  -4063.905233 -17617.652832 -19640.049096   -170.422555  7  6  6  94       
PG04    433.049536 -26477.952392    816.053130    135.876061  6  8  5  77       
PG05 -12068.094923  10188.720017  21187.274738   -140.114469  6  7  4 114       
PG06 -23102.626755   3380.764189 -12687.856558    561.372774  5  6  6  80       
PG07 -10407.801441 -11992.955418  21799.431225     86.185603  7  7  4 115       
PG08   6515.004835 -23435.845541  10102.142311   -138.868665  7  7  6 117       
PG09  -7047.013792 -23787.244908   9336.376306    -77.776633  8  5  8  81       
PG10  24086.151904  10784.428675  -4097.480379    -50.652215  2  5  6  75       
PG11 -23461.893526  12378.830898    551.067427   -336.589990  8  8  4 105       
PG12  -1248.799924  16688.819436 -20915.149324   -416.907758  3  7  2  81       
PG13 -13004.191774  17116.715843  15266.874812    564.313867  5  8  6 100       
PG14 -23068.883233 -13286.169891  -1251.925730    164.447839  7  8  5 107       
PG15  -3101.595595  24568.857155   8785.024851     71.006479  6  8  2 106       
PG16  16936.022582  -4800.266409  19716.523492   -463.690295  4  5  2  83       
PG17 -13094.988625 -10369.961088 -20188.779794    723.156399  5  4  5  81       
PG18  12125.599098   9963.348294  21454.463826   -394.379782  5  4  6  82       
PG19 -14942.402701  -1884.207163 -22084.152703    362.286506  5  5  6  94       
PG20 -20881.105733   4271.179276  15764.862789    415.424700  8  6  8  84       
PG21  14810.606659 -18786.084200  -9976.166405    150.157643  7  8  6  94       
PG22 -23108.484036  -9352.533231  -8290.766816    135.061523  5  8  7 112       
PG23  19306.115172  16585.701295   7899.210256     59.385131  5  4  3  81       
PG24  -9861.515557  19991.485061 -14490.708878   -299.901725  3  4  2 112       
PG25  13171.555574  18790.812703 -13913.482072    464.078881  2  7  4  81       
PG26  23676.272250   1560.648628  12162.769487    231.555444  2  5  3  91       
PG27  12715.687958 -13711.216484  18442.656080    -27.986202  6  3  6 102       
PG28  22346.903504  -2194.366450 -14208.047448     -1.549519  6  8  7  77       
PG29   4529.429129  24309.123748   9507.877293   -608.374780  5  7     83       
PG30 -18930.672879  -4758.245717  18248.250295   -493.643425  4  8  2 115       
PG31  24626.589517  -9370.941703  -5002.906451   -222.377048  5  9  4  71       
PG32      0.000000      0.000000      0.000000 999999.999999
*  2023  8 25  4 45  0.00000000
PG01   8833.770179 -18704.032585 -16802.313340    167.414674  4  8  6 101       
PG02  14409.716039 -19788.023305  -9587.033075   -561.696480  6  7  6  87       
PG03  -2025.330102 -16599.830947 -20806.666335   -170.405633  6  6  6  97       
PG04    689.637732 -26404.789967  -2051.376443    135.886277  6  9  5  91       
PG05 -14212.859407   9084.835742  20359.043993   -140.115730  6  7  4 108       
PG06 -21815.065812   2450.243157 -14957.939633    561.367617  5  6  5  84       
PG07  -8357.566172 -13246.600475  21916.111174     86.176141  7  8  4 115       
PG08   6845.352686 -22133.212821  12547.423271   -138.869619  6  6  6 120       
PG09  -6843.357962 -24727.690496   6688.221254    -77.767694  8  6  8  93       
PG10  24286.514025  11092.265311  -1244.642308    -50.653650  4  5  6  85       
PG11 -23490.737169  12114.753864  -2315.217259   -336.605904  8  7  4 110       
PG12  -3285.088525  15466.279541 -21624.806240   -416.911847  3  7  2  61       
PG13 -12965.230086  15214.687206  17189.136013    564.318025  5  8  5 103       
PG14 -22915.368794 -13520.885593   1567.650941    164.458226  7  8  4 116       
PG15  -3628.387582  23421.153612  11261.650590     71.009792  6  8  2 117       
PG16  18738.092610  -3492.172044  18375.447580   -463.685594  3  6  3  75       
PG17 -12912.681898 -12691.298612 -18959.589878    723.157375  5  3  5  79       
PG18  10010.879181  11247.849193  21890.529352   -394.391545  5  5  7  86       
PG19 -14751.848785  -4343.485359 -21891.836672    362.291128  5  5  6  82       
PG20 -22412.687221   3525.715923  13689.167896    415.422569  8  5  8  94       
PG21  15859.180894 -19186.682952  -7311.888069    150.156791  6  7  5  98       
PG22 -23674.878980 -10044.101508  -5565.693633    135.054951  4  8  7 126       
PG23  18288.641300  16280.494148  10508.399950     59.389541  5  5  2  75       
PG24 -11225.775258  20670.637956 -12286.309153   -299.911797  4  5  3 111       
PG25  11622.555198  18186.783140 -15966.571547    464.080828  2  7  5  75       
PG26  24721.453660   2322.435343   9780.649134    231.553995  2  4  4  94       
PG27  12929.007856 -11469.604720  19794.553110    -27.992176  6  3  6 101       
PG28  20999.929477  -1079.727975 -16247.789125     -1.553125  6  8  7  79       
PG29   4279.739852  25240.094317   6825.146371   -608.375496  4  7     76       
PG30 -17174.662400  -5989.821205  19559.966836   -493.640511  5  7  2 111       
PG31  24140.474802  -8821.086768  -7698.568782   -222.377578  5  8  5  87       
PG32      0.000000      0.000000      0.000000 999999.999999
*  2023  8 25  5  0  0.00000000
PG01  10355.467443 -19587.923145 -14728.721451    167.413600  3  8  6  85       
PG02  15337.390168 -20256.602098  -6924.723673   -561.692635  6  7  6  73       
PG03    168.228436 -15649.865173 -21620.609011   -170.388718  6  6  6  86       
PG04    967.192966 -26021.853486  -4883.232439    135.896558  5  9  4  89       
PG05 -16305.208941   8139.835564  19175.669847   -140.117178  6  6  4 120       
PG06 -20381.784342   1309.244093 -16970.708681    561.362477  4  5  5  71       
PG07  -6376.856535 -14603.371775  21671.276578     86.166451  7  8  3 104       
PG08   7271.705308 -20584.842005  14771.505280   -138.871105  5  6  7 109       
PG09  -6654.758905 -25371.984655   3924.351101    -77.758755  8  7  8 106       
PG10  24211.411528  11252.035392   1629.237623    -50.654587  5  6  5  89       
PG11 -23260.457299  11680.116200  -5141.525593   -336.621836  8  7  4 103       
PG12  -5435.658281  14325.745064 -21971.781673   -416.915723  2  6  2  84       
PG13 -13016.916715  13110.920987  18808.958271    564.322039  4  7  5 115       
PG14 -22491.661010 -13621.126010   4360.524477    164.468624  7  8  4 115       
PG15  -4272.615531  22032.692202  13537.273334     71.013346  6  9    107       
PG16  20454.629378  -2369.575927  16715.118753   -463.680968  3  6  2  88       
PG17 -12849.434745 -14856.028865 -17391.157451    723.157118  4  3  5  93       
PG18   7944.317893  12661.967392  21950.322861   -394.403313  4  6  7 103       
PG19 -14696.812588  -6764.391996 -21330.908676    362.295638  5  4  6  90       
PG20 -23740.444425   2922.176452  11376.239531    415.420609  7  4  8  95       
PG21  16640.160660 -19435.375704  -4512.583171    150.156670  5  7  5 102       
PG22 -24001.739842 -10542.199891  -2742.067617    135.048173  4  7  7 114       
PG23  16993.912317  15919.417705  12938.448239     59.393960  4  6  2  83       
PG24 -12361.911352  21245.965338  -9869.957941   -299.921921  5  6  4 100       
PG25   9849.782549  17575.876651 -17753.590823    464.082741  2  7  5  88       
PG26  25543.173740   2932.078891   7232.564153    231.552557  2  3  4 101       
PG27  13270.400181  -9109.753278  20794.787555    -27.998157  6  4  5 107       
PG28  19541.564199    233.218515 -18008.344202     -1.556710  6  8  6  93       
PG29   4076.829459  25871.217348   4024.072222   -608.376205  4  8  1  84       
PG30 -15373.874802  -7379.450343  20540.723840   -493.637610  5  7  2 104       
PG31  23439.217775  -8083.659018 -10265.679781   -222.378223  5  8  4  89       
PG32      0.000000      0.000000      0.000000 999999.999999
EOF
